[{"OBJECT_NAME":"GEESAT-3 09","OBJECT_ID":"2024-159J","EPOCH":"2026-03-09T19:20:24.519840","MEAN_MOTION":14.83818365,"ECCENTRICITY":0.00221767,"INCLINATION":49.996,"RA_OF_ASC_NODE":183.5508,"ARG_OF_PERICENTER":38.7487,"MEAN_ANOMALY":321.5038,"EPHEMERIS_TYPE":0,"CLASSIFICATION_TYPE":"U","NORAD_CAT_ID":61019,"ELEMENT_SET_NO":999,"REV_AT_EPOCH":8201,"BSTAR":0.00039687818,"MEAN_MOTION_DOT":3.108e-5,"MEAN_MOTION_DDOT":0},{"OBJECT_NAME":"KUIPER-00021","OBJECT_ID":"2025-088N","EPOCH":"2026-03-09T12:22:26.635584","MEAN_MOTION":14.79971319,"ECCENTRICITY":0.00034919,"INCLINATION":51.8994,"RA_OF_ASC_NODE":104.8534,"ARG_OF_PERICENTER":82.7512,"MEAN_ANOMALY":277.3847,"EPHEMERIS_TYPE":0,"CLASSIFICATION_TYPE":"U","NORAD_CAT_ID":63736,"ELEMENT_SET_NO":999,"REV_AT_EPOCH":4745,"BSTAR":0.0006549213,"MEAN_MOTION_DOT":4.779e-5,"MEAN_MOTION_DDOT":0}]
